OBJECT_NAME,OBJECT_ID,EPOCH,MEAN_MOTION,ECCENTRICITY,INCLINATION,RA_OF_ASC_NODE,ARG_OF_PERICENTER,MEAN_ANOMALY,EPHEMERIS_TYPE,CLASSIFICATION_TYPE,NORAD_CAT_ID,ELEMENT_SET_NO,REV_AT_EPOCH,BSTAR,MEAN_MOTION_DOT,MEAN_MOTION_DDOT
2026-134H,2026-134H,2026-06-27T04:42:21.280032,15.09764700,.0014459,97.7036,248.3486,242.1652,117.8112,0,U,69545,999,180,.37419E-3,.599E-4,0
STARLINK-37880,2026-135A,2026-06-27T04:00:03.000096,15.80816701,.0001502,97.2823,205.7386,87.3974,342.1828,0,U,69546,999,291,-.24337E-4,-.4801E-4,0
STARLINK-37881,2026-135B,2026-06-27T00:39:19.636704,15.80972314,.0001219,97.2820,205.5922,99.2066,260.9340,0,U,69547,999,181,.14963E-2,.298621E-2,0
STARLINK-37265,2026-135C,2026-06-27T00:38:23.925120,15.80957987,.0001103,97.2827,205.5927,150.7973,209.3357,0,U,69548,999,181,.20758E-2,.419939E-2,0
STARLINK-37871,2026-135D,2026-06-27T00:37:01.210080,15.81049471,.0001613,97.2828,205.5941,132.8996,227.2408,0,U,69549,999,181,.23396E-2,.478543E-2,0
STARLINK-37865,2026-135E,2026-06-27T00:34:56.306784,15.81046020,.0001364,97.2829,205.5957,137.5585,222.5789,0,U,69550,999,181,.23222E-2,.474724E-2,0
STARLINK-37862,2026-135F,2026-06-27T00:30:54.207072,15.80914631,.0000808,97.2831,205.5997,117.8249,242.3101,0,U,69551,999,181,.16401E-2,.327586E-2,0
STARLINK-37861,2026-135G,2026-06-27T00:28:09.856992,15.80906840,.0001355,97.2833,205.6026,100.5134,259.6287,0,U,69552,999,181,.1581E-2,.315202E-2,0
STARLINK-37859,2026-135H,2026-06-27T01:57:58.237056,15.80903127,.0001056,97.2832,205.6707,53.9570,306.1795,0,U,69553,999,182,.10913E-2,.214984E-2,0
STARLINK-37860,2026-135J,2026-06-27T00:26:25.193760,15.80912721,.0001516,97.2834,205.6041,90.5823,269.5619,0,U,69554,999,181,.15572E-2,.310372E-2,0
STARLINK-37858,2026-135K,2026-06-27T00:23:48.291360,15.80909932,.0000907,97.2830,205.6070,104.5633,255.5736,0,U,69555,999,181,.16231E-2,.323973E-2,0
STARLINK-37927,2026-135L,2026-06-27T01:54:36.766080,15.80865285,.0000586,97.2839,205.6749,112.1262,248.0068,0,U,69556,999,182,.70365E-3,.137085E-2,0
STARLINK-37929,2026-135M,2026-06-27T01:53:24.761184,15.80863582,.0001344,97.2846,205.6753,73.2047,286.9369,0,U,69557,999,182,.55313E-3,.107355E-2,0
STARLINK-37954,2026-135N,2026-06-27T01:51:39.143232,15.80909366,.000077,97.2834,205.6761,73.9963,286.1390,0,U,69558,999,182,.10006E-2,.196741E-2,0
STARLINK-37958,2026-135P,2026-06-27T01:48:06.194880,15.80908505,.0001321,97.2833,205.6803,114.2659,245.8747,0,U,69559,999,182,.88715E-3,.173952E-2,0
STARLINK-37950,2026-135Q,2026-06-27T00:16:44.533056,15.80916186,.0001172,97.2836,205.6136,99.5205,260.6196,0,U,69560,999,181,.15974E-2,.318747E-2,0
STARLINK-37952,2026-135R,2026-06-27T01:45:52.864992,15.80832509,.0002636,97.2835,205.6822,115.4611,244.6930,0,U,69561,999,182,.16218E-2,.322526E-2,0
STARLINK-37935,2026-135S,2026-06-27T01:44:46.140000,15.80907374,.0000691,97.2831,205.6841,9.2281,350.8999,0,U,69562,999,182,.10697E-2,.21066E-2,0
STARLINK-37936,2026-135T,2026-06-27T01:34:39.986976,15.80874728,.000114,97.2845,205.6922,50.2769,309.8599,0,U,69563,999,182,.46273E-3,.89648E-3,0
STARLINK-37932,2026-135U,2026-06-27T01:34:09.099840,15.80889544,.000129,97.2829,205.6938,88.8472,271.2944,0,U,69564,999,182,.67232E-3,.131029E-2,0
STARLINK-37916,2026-135V,2026-06-27T01:33:21.458880,15.80900978,.000069,97.2843,205.6963,44.8476,315.2848,0,U,69565,999,182,.12352E-2,.244145E-2,0
STARLINK-37909,2026-135W,2026-06-27T01:24:16.286112,15.80893564,.0000823,97.2836,205.7035,39.3356,320.7972,0,U,69566,999,182,.94391E-3,.185204E-2,0
STARLINK-37934,2026-135X,2026-06-27T01:28:53.177376,15.80904487,.0001182,97.2831,205.6994,27.7971,332.3360,0,U,69567,999,182,.97043E-3,.190627E-2,0
STARLINK-37938,2026-135Y,2026-06-27T01:25:22.084032,15.80889839,.0000759,97.2834,205.7033,60.9526,299.1819,0,U,69568,999,182,.94536E-3,.185464E-2,0
STARLINK-37924,2026-135Z,2026-06-27T04:23:41.942976,15.80917569,.0001002,97.2834,205.8392,79.9118,280.2263,0,U,69569,999,184,.12028E-2,.237745E-2,0
SHIJIAN-31 (SJ-31),2026-136A,2026-06-26T20:36:33.425280,1.92223544,.694107,63.4776,355.0815,171.7702,212.4513,0,U,69570,999,27,0,.134E-5,0
GUOWANG OBJECT A,2026-137A,2026-06-26T18:51:31.798944,13.89812769,.0012618,50.0001,217.1612,257.1229,102.8260,0,U,69572,999,135,.11075E-3,-.9E-7,0
GUOWANG OBJECT B,2026-137B,2026-06-27T01:41:26.251008,13.89804777,.0011843,49.9998,216.0001,257.3797,102.5777,0,U,69573,999,140,.14508E-3,.33E-6,0
GUOWANG OBJECT C,2026-137C,2026-06-26T23:56:27.359232,13.89815443,.0011895,49.9959,216.2704,258.3651,101.5912,0,U,69574,999,139,.16563E-3,.59E-6,0
